start=new Date('2022-07-08T00:00:00.000Z').valueOf();
sats=[{"LAUNCH_DATE":"2020-09-03","REV_AT_EPOCH":"10280","ELEMENT_SET_NO":"999","TLE_LINE1":"1 46375U 20062BC  22188.59391469  .00001488  00000-0  11876-3 0  9999","ECCENTRICITY":"0.00016420","BSTAR":"0.00011876000000","RA_OF_ASC_NODE":"232.0207","CLASSIFICATION_TYPE":"U","PERIAPSIS":"546.089","MEAN_ELEMENT_THEORY":"SGP4","REF_FRAME":"TEME","SITE":"AFETR","EPHEMERIS_TYPE":"0","APOAPSIS":"548.363","GP_ID":"207627738","MEAN_MOTION_DOT":"0.00001488","OBJECT_ID":"2020-062BC","RCS_SIZE":"LARGE","SEMIMAJOR_AXIS":"6925.361","CENTER_NAME":"EARTH","EPOCH":"2022-07-07T14:15:14.229216","MEAN_ANOMALY":"301.4762","DECAY_DATE":null,"OBJECT_TYPE":"PAYLOAD","INCLINATION":"53.0535","MEAN_MOTION":"15.06395979","NORAD_CAT_ID":"46375","COUNTRY_CODE":"US","OBJECT_NAME":"STARLINK-1724","ARG_OF_PERICENTER":"58.6387","PERIOD":"95.592","TLE_LINE2":"2 46375  53.0535 232.0207 0001642  58.6387 301.4762 15.06395979102802","TIME_SYSTEM":"UTC","MEAN_MOTION_DDOT":"0.0000000000000","FILE":"3509470"},{"OBJECT_NAME":"STARLINK-1742","ARG_OF_PERICENTER":"75.0107","PERIOD":"95.592","NORAD_CAT_ID":"46376","COUNTRY_CODE":"US","TIME_SYSTEM":"UTC","FILE":"3509470","MEAN_MOTION_DDOT":"0.0000000000000","TLE_LINE2":"2 46376  53.0534 231.0803 0001446  75.0107 285.1042 15.06395285102830","DECAY_DATE":null,"RCS_SIZE":"LARGE","MEAN_ANOMALY":"285.1042","CENTER_NAME":"EARTH","EPOCH":"2022-07-07T19:23:06.057600","SEMIMAJOR_AXIS":"6925.363","MEAN_MOTION":"15.06395285","INCLINATION":"53.0534","OBJECT_TYPE":"PAYLOAD","REF_FRAME":"TEME","MEAN_ELEMENT_THEORY":"SGP4","GP_ID":"207628466","MEAN_MOTION_DOT":"0.00001802","APOAPSIS":"548.229","OBJECT_ID":"2020-062BD","SITE":"AFETR","EPHEMERIS_TYPE":"0","TLE_LINE1":"1 46376U 20062BD  22188.80770900  .00001802  00000-0  13988-3 0  9991","ECCENTRICITY":"0.00014460","BSTAR":"0.00013988000000","LAUNCH_DATE":"2020-09-03","ELEMENT_SET_NO":"999","REV_AT_EPOCH":"10283","CLASSIFICATION_TYPE":"U","PERIAPSIS":"546.227","RA_OF_ASC_NODE":"231.0803"},{"PERIAPSIS":"546.236","CLASSIFICATION_TYPE":"U","RA_OF_ASC_NODE":"257.1292","BSTAR":"0.00012910000000","TLE_LINE1":"1 46380U 20062BH  22188.57502434  .00001642  00000-0  12910-3 0  9991","ECCENTRICITY":"0.00014130","ELEMENT_SET_NO":"999","REV_AT_EPOCH":"10245","LAUNCH_DATE":"2020-09-03","OBJECT_ID":"2020-062BH","APOAPSIS":"548.194","GP_ID":"207627242","MEAN_MOTION_DOT":"0.00001642","EPHEMERIS_TYPE":"0","SITE":"AFETR","REF_FRAME":"TEME","MEAN_ELEMENT_THEORY":"SGP4","INCLINATION":"53.0554","MEAN_MOTION":"15.06399546","OBJECT_TYPE":"PAYLOAD","DECAY_DATE":null,"SEMIMAJOR_AXIS":"6925.350","CENTER_NAME":"EARTH","EPOCH":"2022-07-07T13:48:02.102976","MEAN_ANOMALY":"298.6170","RCS_SIZE":"LARGE","MEAN_MOTION_DDOT":"0.0000000000000","FILE":"3509470","TIME_SYSTEM":"UTC","TLE_LINE2":"2 46380  53.0554 257.1292 0001413  61.4961 298.6170 15.06399546102452","PERIOD":"95.592","ARG_OF_PERICENTER":"61.4961","OBJECT_NAME":"STARLINK-1758","COUNTRY_CODE":"US","NORAD_CAT_ID":"46380"},{"FILE":"3509470","MEAN_MOTION_DDOT":"0.0000000000000","TIME_SYSTEM":"UTC","TLE_LINE2":"2 46382  53.0538 231.0200 0001708  57.6417 302.4737 15.06395518102847","ARG_OF_PERICENTER":"57.6417","PERIOD":"95.592","OBJECT_NAME":"STARLINK-1769","COUNTRY_CODE":"US","NORAD_CAT_ID":"46382","MEAN_MOTION":"15.06395518","INCLINATION":"53.0538","OBJECT_TYPE":"PAYLOAD","DECAY_DATE":null,"EPOCH":"2022-07-07T19:44:19.477824","CENTER_NAME":"EARTH","MEAN_ANOMALY":"302.4737","SEMIMAJOR_AXIS":"6925.362","RCS_SIZE":"LARGE","OBJECT_ID":"2020-062BK","GP_ID":"207627993","MEAN_MOTION_DOT":"0.00001204","APOAPSIS":"548.410","EPHEMERIS_TYPE":"0","SITE":"AFETR","REF_FRAME":"TEME","MEAN_ELEMENT_THEORY":"SGP4","PERIAPSIS":"546.044","CLASSIFICATION_TYPE":"U","RA_OF_ASC_NODE":"231.0200","BSTAR":"0.00009972800000","ECCENTRICITY":"0.00017080","TLE_LINE1":"1 46382U 20062BK  22188.82244766  .00001204  00000-0  99728-4 0  9999","REV_AT_EPOCH":"10284","ELEMENT_SET_NO":"999","LAUNCH_DATE":"2020-09-03"},{"MEAN_ELEMENT_THEORY":"SGP4","REF_FRAME":"TEME","EPHEMERIS_TYPE":"0","SITE":"AFETR","OBJECT_ID":"2020-062BL","APOAPSIS":"548.236","GP_ID":"207628239","MEAN_MOTION_DOT":"0.00001350","REV_AT_EPOCH":"10217","ELEMENT_SET_NO":"999","LAUNCH_DATE":"2020-09-03","BSTAR":"0.00010952000000","TLE_LINE1":"1 46383U 20062BL  22188.61002906  .00001350  00000-0  10952-3 0  9998","ECCENTRICITY":"0.00014810","RA_OF_ASC_NODE":"276.9727","PERIAPSIS":"546.185","CLASSIFICATION_TYPE":"U","COUNTRY_CODE":"US","NORAD_CAT_ID":"46383","PERIOD":"95.592","ARG_OF_PERICENTER":"63.0250","OBJECT_NAME":"STARLINK-1770","TLE_LINE2":"2 46383  53.0558 276.9727 0001481  63.0250 297.0890 15.06400972102172","MEAN_MOTION_DDOT":"0.0000000000000","FILE":"3509470","TIME_SYSTEM":"UTC","SEMIMAJOR_AXIS":"6925.346","CENTER_NAME":"EARTH","EPOCH":"2022-07-07T14:38:26.510784","MEAN_ANOMALY":"297.0890","RCS_SIZE":"LARGE","DECAY_DATE":null,"OBJECT_TYPE":"PAYLOAD","INCLINATION":"53.0558","MEAN_MOTION":"15.06400972"},{"INCLINATION":"53.0536","MEAN_MOTION":"15.06393438","OBJECT_TYPE":"PAYLOAD","DECAY_DATE":null,"RCS_SIZE":"LARGE","SEMIMAJOR_AXIS":"6925.369","CENTER_NAME":"EARTH","MEAN_ANOMALY":"279.1284","EPOCH":"2022-07-07T14:43:45.367392","TIME_SYSTEM":"UTC","MEAN_MOTION_DDOT":"0.0000000000000","FILE":"3509470","TLE_LINE2":"2 46384  53.0536 276.9539 0001266  80.9848 279.1284 15.06393438102178","OBJECT_NAME":"STARLINK-1771","ARG_OF_PERICENTER":"80.9848","PERIOD":"95.593","NORAD_CAT_ID":"46384","COUNTRY_CODE":"US","CLASSIFICATION_TYPE":"U","PERIAPSIS":"546.357","RA_OF_ASC_NODE":"276.9539","ECCENTRICITY":"0.00012660","TLE_LINE1":"1 46384U 20062BM  22188.61371953 -.00001356  00000-0 -72187-4 0  9997","BSTAR":"-0.00007218700000","LAUNCH_DATE":"2020-09-03","REV_AT_EPOCH":"10217","ELEMENT_SET_NO":"999","APOAPSIS":"548.110","GP_ID":"207627966","MEAN_MOTION_DOT":"-0.00001356","OBJECT_ID":"2020-062BM","SITE":"AFETR","EPHEMERIS_TYPE":"0","REF_FRAME":"TEME","MEAN_ELEMENT_THEORY":"SGP4"},{"OBJECT_TYPE":"PAYLOAD","MEAN_MOTION":"15.06418814","INCLINATION":"53.0556","MEAN_ANOMALY":"298.1393","CENTER_NAME":"EARTH","EPOCH":"2022-07-07T21:05:53.951424","SEMIMAJOR_AXIS":"6925.291","RCS_SIZE":"LARGE","DECAY_DATE":null,"TLE_LINE2":"2 46532  53.0556  75.7487 0001477  61.9745 298.1393 15.06418814 97419","FILE":"3509470","MEAN_MOTION_DDOT":"0.0000000000000","TIME_SYSTEM":"UTC","COUNTRY_CODE":"US","NORAD_CAT_ID":"46532","ARG_OF_PERICENTER":"61.9745","PERIOD":"95.591","OBJECT_NAME":"STARLINK-1644","RA_OF_ASC_NODE":"75.7487","PERIAPSIS":"546.133","CLASSIFICATION_TYPE":"U","REV_AT_EPOCH":"9741","ELEMENT_SET_NO":"999","LAUNCH_DATE":"2020-10-06","BSTAR":"0.00002053000000","TLE_LINE1":"1 46532U 20070A   22188.87909666  .00000024  00000-0  20530-4 0  9991","ECCENTRICITY":"0.00014770","EPHEMERIS_TYPE":"0","SITE":"AFETR","OBJECT_ID":"2020-070A","MEAN_MOTION_DOT":"0.00000024","GP_ID":"207627256","APOAPSIS":"548.179","MEAN_ELEMENT_THEORY":"SGP4","REF_FRAME":"TEME"},{"PERIAPSIS":"545.949","CLASSIFICATION_TYPE":"U","RA_OF_ASC_NODE":"75.6905","BSTAR":"0.00008986100000","ECCENTRICITY":"0.00017930","TLE_LINE1":"1 46533U 20070B   22188.89015857  .00001057  00000-0  89861-4 0  9993","ELEMENT_SET_NO":"999","REV_AT_EPOCH":"9741","LAUNCH_DATE":"2020-10-06","OBJECT_ID":"2020-070B","APOAPSIS":"548.432","MEAN_MOTION_DOT":"0.00001057","GP_ID":"207628007","EPHEMERIS_TYPE":"0","SITE":"AFETR","REF_FRAME":"TEME","MEAN_ELEMENT_THEORY":"SGP4","INCLINATION":"53.0557","MEAN_MOTION":"15.06407533","OBJECT_TYPE":"PAYLOAD","DECAY_DATE":null,"SEMIMAJOR_AXIS":"6925.325","EPOCH":"2022-07-07T21:21:49.700448","CENTER_NAME":"EARTH","MEAN_ANOMALY":"291.9688","RCS_SIZE":"LARGE","MEAN_MOTION_DDOT":"0.0000000000000","FILE":"3509470","TIME_SYSTEM":"UTC","TLE_LINE2":"2 46533  53.0557  75.6905 0001793  68.1492 291.9688 15.06407533 97418","ARG_OF_PERICENTER":"68.1492","PERIOD":"95.592","OBJECT_NAME":"STARLINK-1648","COUNTRY_CODE":"US","NORAD_CAT_ID":"46533"},{"RA_OF_ASC_NODE":"75.7900","PERIAPSIS":"545.926","CLASSIFICATION_TYPE":"U","REV_AT_EPOCH":"9741","ELEMENT_SET_NO":"999","LAUNCH_DATE":"2020-10-06","BSTAR":"0.00079877000000","TLE_LINE1":"1 46534U 20070C   22188.87173261  .00011641  00000-0  79877-3 0  9991","ECCENTRICITY":"0.00017900","EPHEMERIS_TYPE":"0","SITE":"AFETR","OBJECT_ID":"2020-070C","MEAN_MOTION_DOT":"0.00011641","GP_ID":"207628253","APOAPSIS":"548.406","MEAN_ELEMENT_THEORY":"SGP4","REF_FRAME":"TEME","OBJECT_TYPE":"PAYLOAD","MEAN_MOTION":"15.06415552","INCLINATION":"53.0535","CENTER_NAME":"EARTH","EPOCH":"2022-07-07T20:55:17.697504","MEAN_ANOMALY":"292.5557","SEMIMAJOR_AXIS":"6925.301","RCS_SIZE":"LARGE","DECAY_DATE":null,"TLE_LINE2":"2 46534  53.0535  75.7900 0001790  67.5622 292.5557 15.06415552 97418","FILE":"3509470","MEAN_MOTION_DDOT":"0.0000000000000","TIME_SYSTEM":"UTC","COUNTRY_CODE":"US","NORAD_CAT_ID":"46534","ARG_OF_PERICENTER":"67.5622","PERIOD":"95.591","OBJECT_NAME":"STARLINK-1659"},{"FILE":"3509408","MEAN_MOTION_DDOT":"0.0000000000000","TIME_SYSTEM":"UTC","TLE_LINE2":"2 46535  53.0551  75.8409 0001720  71.7512 288.3664 15.06405833 97424","PERIOD":"95.592","ARG_OF_PERICENTER":"71.7512","OBJECT_NAME":"STARLINK-1663","COUNTRY_CODE":"US","NORAD_CAT_ID":"46535","MEAN_MOTION":"15.06405833","INCLINATION":"53.0551","OBJECT_TYPE":"PAYLOAD","DECAY_DATE":null,"MEAN_ANOMALY":"288.3664","CENTER_NAME":"EARTH","EPOCH":"2022-07-07T20:39:22.713120","SEMIMAJOR_AXIS":"6925.331","RCS_SIZE":"LARGE","OBJECT_ID":"2020-070D","MEAN_MOTION_DOT":"0.00002805","GP_ID":"207606453","APOAPSIS":"548.387","EPHEMERIS_TYPE":"0","SITE":"AFETR","REF_FRAME":"TEME","MEAN_ELEMENT_THEORY":"SGP4","PERIAPSIS":"546.005","CLASSIFICATION_TYPE":"U","RA_OF_ASC_NODE":"75.8409","BSTAR":"0.00020707000000","ECCENTRICITY":"0.00017200","TLE_LINE1":"1 46535U 20070D   22188.86067955  .00002805  00000-0  20707-3 0  9993","REV_AT_EPOCH":"9742","ELEMENT_SET_NO":"999","LAUNCH_DATE":"2020-10-06"}];
